LANDSAT 9               
1 49260U 21088A   23363.87100274  .00000596  00000+0  14232-3 0  9990
2 49260  98.2096  71.2037 0001120  91.3969 268.7358 14.57121376119892
